sat21282
1 21282U 75052T   20046.63119376 -.00000011  00000-0  67789-4 0  9996
2 21282  99.7512 102.1110 0100112  16.4781 137.5578 13.24518388391752
